QIANFAN-17              
1 60395U 24140S   25281.33471233  .00000066  00000+0  83315-4 0  9993
2 60395  88.9765 306.2102 0016201  41.4893 318.7484 13.50972728 59307
QIANFAN-18              
1 60396U 24140T   25281.31415428  .00000058  00000+0  71673-4 0  9991
2 60396  88.9756 305.7508 0014978  25.6704 334.5187 13.50974242 58696
QIANFAN-19              
1 61552U 24185A   25281.34974434  .00000645  00000+0  33117-3 0  9997
2 61552  88.9762  85.4325 0008175 142.0223 218.1542 14.14190065 60429
QIANFAN-20              
1 61553U 24185B   25281.34248047  .00000606  00000+0  34366-3 0  9996
2 61553  88.9759  85.6913 0005836 169.8823 190.2480 14.08739955 60280
QIANFAN-21              
1 61554U 24185C   25281.26246104  .00000959  00000+0  42379-3 0  9994
2 61554  88.9678  84.6468 0009617 206.1464 153.9243 14.22467114 60668
QIANFAN-22              
1 61555U 24185D   25281.25065201  .00000245  00000+0  20090-3 0  9995
2 61555  88.9745  86.4201 0006495 178.0927 182.0270 13.86267665 59862
QIANFAN-23              
1 61556U 24185E   25281.34662438  .00000837  00000+0  41596-3 0  9992
2 61556  88.9755  85.2730 0008618 153.6581 206.5047 14.16182245 60491
QIANFAN-24              
1 61557U 24185F   25281.25025159  .00000958  00000+0  41367-3 0  9996
2 61557  88.9738  84.7962 0010897 142.4619 217.7336 14.23672693 60702
